ONEWEB-0183             
1 48219U 21031K   25325.46623959  .00000220  00000+0  55983-3 0  9998
2 48219  87.8974 331.1000 0001616  92.3525 267.7789 13.14501779221039
ONEWEB-0185             
1 48220U 21031L   25325.56853782  .00000024  00000+0  30522-4 0  9995
2 48220  87.8991 331.0515 0001442  81.9926 278.1367 13.14502920220975
ONEWEB-0187             
1 48221U 21031M   25325.54857534  .00000252  00000+0  64404-3 0  9991
2 48221  87.8979 331.1000 0001678  81.7974 278.3346 13.14502774220981
ONEWEB-0192             
1 48222U 21031N   25325.44245003 -.00000162  00000+0 -47179-3 0  9995
2 48222  87.8974 331.1121 0001881  88.7455 271.3891 13.14501933220881
ONEWEB-0219             
1 48223U 21031P   25325.57407343 -.00000055  00000+0 -18272-3 0  9990
2 48223  87.8986 331.0619 0001622  83.3719 276.7595 13.14501854221101
ONEWEB-0202             
1 48224U 21031Q   25325.55505655  .00000208  00000+0  52701-3 0  9997
2 48224  87.8979 331.0787 0002339  75.2533 284.8855 13.14503341221089
ONEWEB-0204             
1 48225U 21031R   25325.58915012 -.00000160  00000+0 -46527-3 0  9991
2 48225  87.8984 331.0610 0001553  96.4100 263.7207 13.14502217220989
ONEWEB-0205             
1 48226U 21031S   25325.56456118  .00000087  00000+0  19900-3 0  9998
2 48226  87.8987 331.0589 0001685  85.8963 274.2359 13.14502118220999
ONEWEB-0206             
1 48227U 21031T   25325.46148925  .00000176  00000+0  44041-3 0  9995
2 48227  87.8995 331.0678 0002034  96.6907 263.4455 13.14502679220938
ONEWEB-0182             
1 48228U 21031U   25325.45672779  .00000067  00000+0  14519-3 0  9990
2 48228  87.8975 331.1016 0001603  94.1143 266.0170 13.14501908221141
ONEWEB-0186             
1 48229U 21031V   25325.46783441  .00000252  00000+0  64561-3 0  9999
2 48229  87.8992 331.0727 0001785  87.8316 272.3018 13.14502127221090
ONEWEB-0181             
1 48230U 21031W   25325.44562208 -.00000137  00000+0 -40348-3 0  9996
2 48230  87.8971 331.1350 0001854  85.3486 274.7856 13.14501952220944
ONEWEB-0188             
1 48231U 21031X   25325.55981009  .00000232  00000+0  59084-3 0  9994
2 48231  87.8977 331.1082 0001698  90.3982 269.7342 13.14503014220862
ONEWEB-0220             
1 48232U 21031Y   25325.44721956 -.00000038  00000+0 -13650-3 0  9991
2 48232  87.8989 331.0763 0001618  85.6384 274.4930 13.14502794221115
ONEWEB-0165             
1 48233U 21031Z   25325.55188868  .00000180  00000+0  45232-3 0  9990
2 48233  87.8974 331.0849 0002032  82.8721 277.2640 13.14501265221087
ONEWEB-0199             
1 48234U 21031AA  25325.45990662  .00000180  00000+0  45069-3 0  9991
2 48234  87.8986 331.0759 0001890  96.3884 263.7461 13.14503285220974
ONEWEB-0203             
1 48235U 21031AB  25325.45037911  .00000026  00000+0  35497-4 0  9995
2 48235  87.8984 331.0789 0002093  89.6909 270.4461 13.14501888220988
