[{"OBJECT_NAME":"ONEWEB-0183","OBJECT_ID":"2021-031K","EPOCH":"2025-11-21T11:11:23.100576","MEAN_MOTION":13.14501779,"ECCENTRICITY":0.0001616,"INCLINATION":87.8974,"RA_OF_ASC_NODE":331.1,"ARG_OF_PERICENTER":92.3525,"MEAN_ANOMALY":267.7789,"EPHEMERIS_TYPE":0,"CLASSIFICATION_TYPE":"U","NORAD_CAT_ID":48219,"ELEMENT_SET_NO":999,"REV_AT_EPOCH":22103,"BSTAR":0.00055983,"MEAN_MOTION_DOT":2.2e-6,"MEAN_MOTION_DDOT":0},{"OBJECT_NAME":"ONEWEB-0185","OBJECT_ID":"2021-031L","EPOCH":"2025-11-21T13:38:41.667648","MEAN_MOTION":13.1450292,"ECCENTRICITY":0.0001442,"INCLINATION":87.8991,"RA_OF_ASC_NODE":331.0515,"ARG_OF_PERICENTER":81.9926,"MEAN_ANOMALY":278.1367,"EPHEMERIS_TYPE":0,"CLASSIFICATION_TYPE":"U","NORAD_CAT_ID":48220,"ELEMENT_SET_NO":999,"REV_AT_EPOCH":22097,"BSTAR":3.0522e-5,"MEAN_MOTION_DOT":2.4e-7,"MEAN_MOTION_DDOT":0},{"OBJECT_NAME":"ONEWEB-0187","OBJECT_ID":"2021-031M","EPOCH":"2025-11-21T13:09:56.909376","MEAN_MOTION":13.14502774,"ECCENTRICITY":0.0001678,"INCLINATION":87.8979,"RA_OF_ASC_NODE":331.1,"ARG_OF_PERICENTER":81.7974,"MEAN_ANOMALY":278.3346,"EPHEMERIS_TYPE":0,"CLASSIFICATION_TYPE":"U","NORAD_CAT_ID":48221,"ELEMENT_SET_NO":999,"REV_AT_EPOCH":22098,"BSTAR":0.00064404,"MEAN_MOTION_DOT":2.52e-6,"MEAN_MOTION_DDOT":0},{"OBJECT_NAME":"ONEWEB-0192","OBJECT_ID":"2021-031N","EPOCH":"2025-11-21T10:37:07.682592","MEAN_MOTION":13.14501933,"ECCENTRICITY":0.0001881,"INCLINATION":87.8974,"RA_OF_ASC_NODE":331.1121,"ARG_OF_PERICENTER":88.7455,"MEAN_ANOMALY":271.3891,"EPHEMERIS_TYPE":0,"CLASSIFICATION_TYPE":"U","NORAD_CAT_ID":48222,"ELEMENT_SET_NO":999,"REV_AT_EPOCH":22088,"BSTAR":-0.00047179,"MEAN_MOTION_DOT":-1.62e-6,"MEAN_MOTION_DDOT":0},{"OBJECT_NAME":"ONEWEB-0219","OBJECT_ID":"2021-031P","EPOCH":"2025-11-21T13:46:39.944352","MEAN_MOTION":13.14501854,"ECCENTRICITY":0.0001622,"INCLINATION":87.8986,"RA_OF_ASC_NODE":331.0619,"ARG_OF_PERICENTER":83.3719,"MEAN_ANOMALY":276.7595,"EPHEMERIS_TYPE":0,"CLASSIFICATION_TYPE":"U","NORAD_CAT_ID":48223,"ELEMENT_SET_NO":999,"REV_AT_EPOCH":22110,"BSTAR":-0.00018272,"MEAN_MOTION_DOT":-5.5e-7,"MEAN_MOTION_DDOT":0},{"OBJECT_NAME":"ONEWEB-0202","OBJECT_ID":"2021-031Q","EPOCH":"2025-11-21T13:19:16.885920","MEAN_MOTION":13.14503341,"ECCENTRICITY":0.0002339,"INCLINATION":87.8979,"RA_OF_ASC_NODE":331.0787,"ARG_OF_PERICENTER":75.2533,"MEAN_ANOMALY":284.8855,"EPHEMERIS_TYPE":0,"CLASSIFICATION_TYPE":"U","NORAD_CAT_ID":48224,"ELEMENT_SET_NO":999,"REV_AT_EPOCH":22108,"BSTAR":0.00052701,"MEAN_MOTION_DOT":2.08e-6,"MEAN_MOTION_DDOT":0},{"OBJECT_NAME":"ONEWEB-0204","OBJECT_ID":"2021-031R","EPOCH":"2025-11-21T14:08:22.570368","MEAN_MOTION":13.14502217,"ECCENTRICITY":0.0001553,"INCLINATION":87.8984,"RA_OF_ASC_NODE":331.061,"ARG_OF_PERICENTER":96.41,"MEAN_ANOMALY":263.7207,"EPHEMERIS_TYPE":0,"CLASSIFICATION_TYPE":"U","NORAD_CAT_ID":48225,"ELEMENT_SET_NO":999,"REV_AT_EPOCH":22098,"BSTAR":-0.00046527,"MEAN_MOTION_DOT":-1.6e-6,"MEAN_MOTION_DDOT":0},{"OBJECT_NAME":"ONEWEB-0205","OBJECT_ID":"2021-031S","EPOCH":"2025-11-21T13:32:58.085952","MEAN_MOTION":13.14502118,"ECCENTRICITY":0.0001685,"INCLINATION":87.8987,"RA_OF_ASC_NODE":331.0589,"ARG_OF_PERICENTER":85.8963,"MEAN_ANOMALY":274.2359,"EPHEMERIS_TYPE":0,"CLASSIFICATION_TYPE":"U","NORAD_CAT_ID":48226,"ELEMENT_SET_NO":999,"REV_AT_EPOCH":22099,"BSTAR":0.000199,"MEAN_MOTION_DOT":8.7e-7,"MEAN_MOTION_DDOT":0},{"OBJECT_NAME":"ONEWEB-0206","OBJECT_ID":"2021-031T","EPOCH":"2025-11-21T11:04:32.671200","MEAN_MOTION":13.14502679,"ECCENTRICITY":0.0002034,"INCLINATION":87.8995,"RA_OF_ASC_NODE":331.0678,"ARG_OF_PERICENTER":96.6907,"MEAN_ANOMALY":263.4455,"EPHEMERIS_TYPE":0,"CLASSIFICATION_TYPE":"U","NORAD_CAT_ID":48227,"ELEMENT_SET_NO":999,"REV_AT_EPOCH":22093,"BSTAR":0.00044041,"MEAN_MOTION_DOT":1.76e-6,"MEAN_MOTION_DDOT":0},{"OBJECT_NAME":"ONEWEB-0182","OBJECT_ID":"2021-031U","EPOCH":"2025-11-21T10:57:41.281056","MEAN_MOTION":13.14501908,"ECCENTRICITY":0.0001603,"INCLINATION":87.8975,"RA_OF_ASC_NODE":331.1016,"ARG_OF_PERICENTER":94.1143,"MEAN_ANOMALY":266.017,"EPHEMERIS_TYPE":0,"CLASSIFICATION_TYPE":"U","NORAD_CAT_ID":48228,"ELEMENT_SET_NO":999,"REV_AT_EPOCH":22114,"BSTAR":0.00014519,"MEAN_MOTION_DOT":6.7e-7,"MEAN_MOTION_DDOT":0},{"OBJECT_NAME":"ONEWEB-0186","OBJECT_ID":"2021-031V","EPOCH":"2025-11-21T11:13:40.893024","MEAN_MOTION":13.14502127,"ECCENTRICITY":0.0001785,"INCLINATION":87.8992,"RA_OF_ASC_NODE":331.0727,"ARG_OF_PERICENTER":87.8316,"MEAN_ANOMALY":272.3018,"EPHEMERIS_TYPE":0,"CLASSIFICATION_TYPE":"U","NORAD_CAT_ID":48229,"ELEMENT_SET_NO":999,"REV_AT_EPOCH":22109,"BSTAR":0.00064561,"MEAN_MOTION_DOT":2.52e-6,"MEAN_MOTION_DDOT":0},{"OBJECT_NAME":"ONEWEB-0181","OBJECT_ID":"2021-031W","EPOCH":"2025-11-21T10:41:41.747712","MEAN_MOTION":13.14501952,"ECCENTRICITY":0.0001854,"INCLINATION":87.8971,"RA_OF_ASC_NODE":331.135,"ARG_OF_PERICENTER":85.3486,"MEAN_ANOMALY":274.7856,"EPHEMERIS_TYPE":0,"CLASSIFICATION_TYPE":"U","NORAD_CAT_ID":48230,"ELEMENT_SET_NO":999,"REV_AT_EPOCH":22094,"BSTAR":-0.00040348,"MEAN_MOTION_DOT":-1.37e-6,"MEAN_MOTION_DDOT":0},{"OBJECT_NAME":"ONEWEB-0188","OBJECT_ID":"2021-031X","EPOCH":"2025-11-21T13:26:07.591776","MEAN_MOTION":13.14503014,"ECCENTRICITY":0.0001698,"INCLINATION":87.8977,"RA_OF_ASC_NODE":331.1082,"ARG_OF_PERICENTER":90.3982,"MEAN_ANOMALY":269.7342,"EPHEMERIS_TYPE":0,"CLASSIFICATION_TYPE":"U","NORAD_CAT_ID":48231,"ELEMENT_SET_NO":999,"REV_AT_EPOCH":22086,"BSTAR":0.00059084,"MEAN_MOTION_DOT":2.32e-6,"MEAN_MOTION_DDOT":0},{"OBJECT_NAME":"ONEWEB-0220","OBJECT_ID":"2021-031Y","EPOCH":"2025-11-21T10:43:59.769984","MEAN_MOTION":13.14502794,"ECCENTRICITY":0.0001618,"INCLINATION":87.8989,"RA_OF_ASC_NODE":331.0763,"ARG_OF_PERICENTER":85.6384,"MEAN_ANOMALY":274.493,"EPHEMERIS_TYPE":0,"CLASSIFICATION_TYPE":"U","NORAD_CAT_ID":48232,"ELEMENT_SET_NO":999,"REV_AT_EPOCH":22111,"BSTAR":-0.0001365,"MEAN_MOTION_DOT":-3.8e-7,"MEAN_MOTION_DDOT":0},{"OBJECT_NAME":"ONEWEB-0165","OBJECT_ID":"2021-031Z","EPOCH":"2025-11-21T13:14:43.181952","MEAN_MOTION":13.14501265,"ECCENTRICITY":0.0002032,"INCLINATION":87.8974,"RA_OF_ASC_NODE":331.0849,"ARG_OF_PERICENTER":82.8721,"MEAN_ANOMALY":277.264,"EPHEMERIS_TYPE":0,"CLASSIFICATION_TYPE":"U","NORAD_CAT_ID":48233,"ELEMENT_SET_NO":999,"REV_AT_EPOCH":22108,"BSTAR":0.00045232,"MEAN_MOTION_DOT":1.8e-6,"MEAN_MOTION_DDOT":0},{"OBJECT_NAME":"ONEWEB-0199","OBJECT_ID":"2021-031AA","EPOCH":"2025-11-21T11:02:15.931968","MEAN_MOTION":13.14503285,"ECCENTRICITY":0.000189,"INCLINATION":87.8986,"RA_OF_ASC_NODE":331.0759,"ARG_OF_PERICENTER":96.3884,"MEAN_ANOMALY":263.7461,"EPHEMERIS_TYPE":0,"CLASSIFICATION_TYPE":"U","NORAD_CAT_ID":48234,"ELEMENT_SET_NO":999,"REV_AT_EPOCH":22097,"BSTAR":0.00045069,"MEAN_MOTION_DOT":1.8e-6,"MEAN_MOTION_DDOT":0},{"OBJECT_NAME":"ONEWEB-0203","OBJECT_ID":"2021-031AB","EPOCH":"2025-11-21T10:48:32.755104","MEAN_MOTION":13.14501888,"ECCENTRICITY":0.0002093,"INCLINATION":87.8984,"RA_OF_ASC_NODE":331.0789,"ARG_OF_PERICENTER":89.6909,"MEAN_ANOMALY":270.4461,"EPHEMERIS_TYPE":0,"CLASSIFICATION_TYPE":"U","NORAD_CAT_ID":48235,"ELEMENT_SET_NO":999,"REV_AT_EPOCH":22098,"BSTAR":3.5497e-5,"MEAN_MOTION_DOT":2.6e-7,"MEAN_MOTION_DDOT":0}]
